COSMOS 2219             
1 22219U 92076A   26129.78009463  .00000004  00000+0  26851-4 0  9996
2 22219  71.0616 250.3585 0015897 108.7098 251.5751 14.14103490727010
SL-16 R/B               
1 22220U 92076B   26129.83548883  .00000065  00000+0  56509-4 0  9998
2 22220  71.0010  59.5698 0012971 351.6662  68.1844 14.16869744730494
COSMOS 2221             
1 22236U 92080A   26129.75842073  .00001119  00000+0  96236-4 0  9991
2 22236  82.5055 220.5750 0013798 353.6562   6.4483 14.96436113789929
SL-16 R/B               
1 22285U 92093B   26129.72756284 -.00000207  00000+0 -81421-4 0  9993
2 22285  71.0224 236.1272 0005935 233.7948 126.2627 14.15461124721799
COSMOS 2228             
1 22286U 92094A   26129.80040475  .00001181  00000+0  98789-4 0  9997
2 22286  82.5187 178.8070 0019550  96.4531 263.8919 14.97457740785200
SL-16 R/B               
1 22566U 93016B   26129.35016772  .00000090  00000+0  70466-4 0  9996
2 22566  71.0050  87.7767 0012091 237.2341 122.7618 14.15307809710758
COSMOS 2242             
1 22626U 93024A   26129.67580475  .00001193  00000+0  10162-3 0  9994
2 22626  82.5206 208.3802 0017816 100.1436 260.1797 14.96793714789517
SL-16 R/B               
1 22803U 93059B   26129.74118642 -.00000211  00000+0 -80891-4 0  9999
2 22803  70.9906 242.3773 0015154 121.2731 238.9879 14.17242161688185
ARIANE 40 R/B           
1 22830U 93061H   26129.79965269  .00000132  00000+0  64066-4 0  9998
2 22830  98.4832 197.4508 0011971 102.7959 257.4564 14.32890994702851
COSMOS 2278             
1 23087U 94023A   26129.84425014 -.00000211  00000+0 -85463-4 0  9991
2 23087  71.0552  47.1490 0011141 290.0193  69.9730 14.14388411653451
SL-16 R/B               
1 23088U 94023B   26129.79252223  .00000225  00000+0  14091-3 0  9997
2 23088  70.9999 302.5645 0004616 228.9531 131.1194 14.15021616654730
SL-16 R/B               
1 23343U 94074B   26129.82076552  .00000268  00000+0  42459-4 0  9997
2 23343  97.7019 158.1359 0007300  33.8127 139.4567 14.79469201696285
SL-16 R/B               
1 23405U 94077B   26129.75027701 -.00000209  00000+0 -82409-4 0  9999
2 23405  70.9829 224.0256 0000779  14.1039 346.0105 14.15569653624874
