[
    {
        "OBJECT_NAME": "COSMOS 2219",
        "OBJECT_ID": "1992-076A",
        "EPOCH": "2026-05-09T18:43:20.176032",
        "MEAN_MOTION": 14.1410349,
        "ECCENTRICITY": 0.0015897,
        "INCLINATION": 71.0616,
        "RA_OF_ASC_NODE": 250.3585,
        "ARG_OF_PERICENTER": 108.7098,
        "MEAN_ANOMALY": 251.5751,
        "EPHEMERIS_TYPE": 0,
        "CLASSIFICATION_TYPE": "U",
        "NORAD_CAT_ID": 22219,
        "ELEMENT_SET_NO": 999,
        "REV_AT_EPOCH": 72701,
        "BSTAR": 2.6851e-05,
        "MEAN_MOTION_DOT": 4e-08,
        "MEAN_MOTION_DDOT": 0
    },
    {
        "OBJECT_NAME": "SL-16 R/B",
        "OBJECT_ID": "1992-076B",
        "EPOCH": "2026-05-09T20:03:06.234912",
        "MEAN_MOTION": 14.16869744,
        "ECCENTRICITY": 0.0012971,
        "INCLINATION": 71.001,
        "RA_OF_ASC_NODE": 59.5698,
        "ARG_OF_PERICENTER": 351.6662,
        "MEAN_ANOMALY": 68.1844,
        "EPHEMERIS_TYPE": 0,
        "CLASSIFICATION_TYPE": "U",
        "NORAD_CAT_ID": 22220,
        "ELEMENT_SET_NO": 999,
        "REV_AT_EPOCH": 73049,
        "BSTAR": 5.6509e-05,
        "MEAN_MOTION_DOT": 6.5e-07,
        "MEAN_MOTION_DDOT": 0
    },
    {
        "OBJECT_NAME": "COSMOS 2221",
        "OBJECT_ID": "1992-080A",
        "EPOCH": "2026-05-09T18:12:07.551072",
        "MEAN_MOTION": 14.96436113,
        "ECCENTRICITY": 0.0013798,
        "INCLINATION": 82.5055,
        "RA_OF_ASC_NODE": 220.575,
        "ARG_OF_PERICENTER": 353.6562,
        "MEAN_ANOMALY": 6.4483,
        "EPHEMERIS_TYPE": 0,
        "CLASSIFICATION_TYPE": "U",
        "NORAD_CAT_ID": 22236,
        "ELEMENT_SET_NO": 999,
        "REV_AT_EPOCH": 78992,
        "BSTAR": 9.6236e-05,
        "MEAN_MOTION_DOT": 1.119e-05,
        "MEAN_MOTION_DDOT": 0
    },
    {
        "OBJECT_NAME": "SL-16 R/B",
        "OBJECT_ID": "1992-093B",
        "EPOCH": "2026-05-09T17:27:41.429376",
        "MEAN_MOTION": 14.15461124,
        "ECCENTRICITY": 0.0005935,
        "INCLINATION": 71.0224,
        "RA_OF_ASC_NODE": 236.1272,
        "ARG_OF_PERICENTER": 233.7948,
        "MEAN_ANOMALY": 126.2627,
        "EPHEMERIS_TYPE": 0,
        "CLASSIFICATION_TYPE": "U",
        "NORAD_CAT_ID": 22285,
        "ELEMENT_SET_NO": 999,
        "REV_AT_EPOCH": 72179,
        "BSTAR": -8.1421e-05,
        "MEAN_MOTION_DOT": -2.07e-06,
        "MEAN_MOTION_DDOT": 0
    },
    {
        "OBJECT_NAME": "COSMOS 2228",
        "OBJECT_ID": "1992-094A",
        "EPOCH": "2026-05-09T19:12:34.970400",
        "MEAN_MOTION": 14.9745774,
        "ECCENTRICITY": 0.001955,
        "INCLINATION": 82.5187,
        "RA_OF_ASC_NODE": 178.807,
        "ARG_OF_PERICENTER": 96.4531,
        "MEAN_ANOMALY": 263.8919,
        "EPHEMERIS_TYPE": 0,
        "CLASSIFICATION_TYPE": "U",
        "NORAD_CAT_ID": 22286,
        "ELEMENT_SET_NO": 999,
        "REV_AT_EPOCH": 78520,
        "BSTAR": 9.8789e-05,
        "MEAN_MOTION_DOT": 1.181e-05,
        "MEAN_MOTION_DDOT": 0
    },
    {
        "OBJECT_NAME": "SL-16 R/B",
        "OBJECT_ID": "1993-016B",
        "EPOCH": "2026-05-09T08:24:14.491008",
        "MEAN_MOTION": 14.15307809,
        "ECCENTRICITY": 0.0012091,
        "INCLINATION": 71.005,
        "RA_OF_ASC_NODE": 87.7767,
        "ARG_OF_PERICENTER": 237.2341,
        "MEAN_ANOMALY": 122.7618,
        "EPHEMERIS_TYPE": 0,
        "CLASSIFICATION_TYPE": "U",
        "NORAD_CAT_ID": 22566,
        "ELEMENT_SET_NO": 999,
        "REV_AT_EPOCH": 71075,
        "BSTAR": 7.0466e-05,
        "MEAN_MOTION_DOT": 9e-07,
        "MEAN_MOTION_DDOT": 0
    },
    {
        "OBJECT_NAME": "COSMOS 2242",
        "OBJECT_ID": "1993-024A",
        "EPOCH": "2026-05-09T16:13:09.530400",
        "MEAN_MOTION": 14.96793714,
        "ECCENTRICITY": 0.0017816,
        "INCLINATION": 82.5206,
        "RA_OF_ASC_NODE": 208.3802,
        "ARG_OF_PERICENTER": 100.1436,
        "MEAN_ANOMALY": 260.1797,
        "EPHEMERIS_TYPE": 0,
        "CLASSIFICATION_TYPE": "U",
        "NORAD_CAT_ID": 22626,
        "ELEMENT_SET_NO": 999,
        "REV_AT_EPOCH": 78951,
        "BSTAR": 0.00010162,
        "MEAN_MOTION_DOT": 1.193e-05,
        "MEAN_MOTION_DDOT": 0
    },
    {
        "OBJECT_NAME": "SL-16 R/B",
        "OBJECT_ID": "1993-059B",
        "EPOCH": "2026-05-09T17:47:18.506688",
        "MEAN_MOTION": 14.17242161,
        "ECCENTRICITY": 0.0015154,
        "INCLINATION": 70.9906,
        "RA_OF_ASC_NODE": 242.3773,
        "ARG_OF_PERICENTER": 121.2731,
        "MEAN_ANOMALY": 238.9879,
        "EPHEMERIS_TYPE": 0,
        "CLASSIFICATION_TYPE": "U",
        "NORAD_CAT_ID": 22803,
        "ELEMENT_SET_NO": 999,
        "REV_AT_EPOCH": 68818,
        "BSTAR": -8.0891e-05,
        "MEAN_MOTION_DOT": -2.11e-06,
        "MEAN_MOTION_DDOT": 0
    },
    {
        "OBJECT_NAME": "ARIANE 40 R/B",
        "OBJECT_ID": "1993-061H",
        "EPOCH": "2026-05-09T19:11:29.992416",
        "MEAN_MOTION": 14.32890994,
        "ECCENTRICITY": 0.0011971,
        "INCLINATION": 98.4832,
        "RA_OF_ASC_NODE": 197.4508,
        "ARG_OF_PERICENTER": 102.7959,
        "MEAN_ANOMALY": 257.4564,
        "EPHEMERIS_TYPE": 0,
        "CLASSIFICATION_TYPE": "U",
        "NORAD_CAT_ID": 22830,
        "ELEMENT_SET_NO": 999,
        "REV_AT_EPOCH": 70285,
        "BSTAR": 6.4066e-05,
        "MEAN_MOTION_DOT": 1.32e-06,
        "MEAN_MOTION_DDOT": 0
    },
    {
        "OBJECT_NAME": "COSMOS 2278",
        "OBJECT_ID": "1994-023A",
        "EPOCH": "2026-05-09T20:15:43.212096",
        "MEAN_MOTION": 14.14388411,
        "ECCENTRICITY": 0.0011141,
        "INCLINATION": 71.0552,
        "RA_OF_ASC_NODE": 47.149,
        "ARG_OF_PERICENTER": 290.0193,
        "MEAN_ANOMALY": 69.973,
        "EPHEMERIS_TYPE": 0,
        "CLASSIFICATION_TYPE": "U",
        "NORAD_CAT_ID": 23087,
        "ELEMENT_SET_NO": 999,
        "REV_AT_EPOCH": 65345,
        "BSTAR": -8.5463e-05,
        "MEAN_MOTION_DOT": -2.11e-06,
        "MEAN_MOTION_DDOT": 0
    },
    {
        "OBJECT_NAME": "SL-16 R/B",
        "OBJECT_ID": "1994-023B",
        "EPOCH": "2026-05-09T19:01:13.920672",
        "MEAN_MOTION": 14.15021616,
        "ECCENTRICITY": 0.0004616,
        "INCLINATION": 70.9999,
        "RA_OF_ASC_NODE": 302.5645,
        "ARG_OF_PERICENTER": 228.9531,
        "MEAN_ANOMALY": 131.1194,
        "EPHEMERIS_TYPE": 0,
        "CLASSIFICATION_TYPE": "U",
        "NORAD_CAT_ID": 23088,
        "ELEMENT_SET_NO": 999,
        "REV_AT_EPOCH": 65473,
        "BSTAR": 0.00014091,
        "MEAN_MOTION_DOT": 2.25e-06,
        "MEAN_MOTION_DDOT": 0
    },
    {
        "OBJECT_NAME": "SL-16 R/B",
        "OBJECT_ID": "1994-074B",
        "EPOCH": "2026-05-09T19:41:54.140928",
        "MEAN_MOTION": 14.79469201,
        "ECCENTRICITY": 0.00073,
        "INCLINATION": 97.7019,
        "RA_OF_ASC_NODE": 158.1359,
        "ARG_OF_PERICENTER": 33.8127,
        "MEAN_ANOMALY": 139.4567,
        "EPHEMERIS_TYPE": 0,
        "CLASSIFICATION_TYPE": "U",
        "NORAD_CAT_ID": 23343,
        "ELEMENT_SET_NO": 999,
        "REV_AT_EPOCH": 69628,
        "BSTAR": 4.2459e-05,
        "MEAN_MOTION_DOT": 2.68e-06,
        "MEAN_MOTION_DDOT": 0
    },
    {
        "OBJECT_NAME": "SL-16 R/B",
        "OBJECT_ID": "1994-077B",
        "EPOCH": "2026-05-09T18:00:23.933664",
        "MEAN_MOTION": 14.15569653,
        "ECCENTRICITY": 7.79e-05,
        "INCLINATION": 70.9829,
        "RA_OF_ASC_NODE": 224.0256,
        "ARG_OF_PERICENTER": 14.1039,
        "MEAN_ANOMALY": 346.0105,
        "EPHEMERIS_TYPE": 0,
        "CLASSIFICATION_TYPE": "U",
        "NORAD_CAT_ID": 23405,
        "ELEMENT_SET_NO": 999,
        "REV_AT_EPOCH": 62487,
        "BSTAR": -8.2409e-05,
        "MEAN_MOTION_DOT": -2.09e-06,
        "MEAN_MOTION_DDOT": 0
    }
]